[{"OBJECT_NAME":"STARLINK-34926","OBJECT_ID":"2025-175W","EPOCH":"2026-03-09T14:43:25.355424","MEAN_MOTION":15.05656828,"ECCENTRICITY":0.000305,"INCLINATION":97.602,"RA_OF_ASC_NODE":302.6561,"ARG_OF_PERICENTER":98.7357,"MEAN_ANOMALY":261.4215,"EPHEMERIS_TYPE":0,"CLASSIFICATION_TYPE":"U","NORAD_CAT_ID":65194,"ELEMENT_SET_NO":999,"REV_AT_EPOCH":3260,"BSTAR":0.00051926,"MEAN_MOTION_DOT":7.441e-5,"MEAN_MOTION_DDOT":0},{"OBJECT_NAME":"CZ-4B DEB","OBJECT_ID":"2008-053J","EPOCH":"2026-03-09T11:59:22.469568","MEAN_MOTION":15.1637526,"ECCENTRICITY":0.00601661,"INCLINATION":97.7872,"RA_OF_ASC_NODE":170.5072,"ARG_OF_PERICENTER":304.792,"MEAN_ANOMALY":54.7659,"EPHEMERIS_TYPE":0,"CLASSIFICATION_TYPE":"U","NORAD_CAT_ID":35573,"ELEMENT_SET_NO":999,"REV_AT_EPOCH":91868,"BSTAR":0.0017688276,"MEAN_MOTION_DOT":0.00036031,"MEAN_MOTION_DDOT":0}]
